[
    {
        "Altitude(m)": 562121.593554751,
        "Argument of Periapsis(deg)": 0.006622991110713501,
        "Eccentricity": 0.0,
        "Inclination(deg)": 53.0,
        "Latitude(deg)": -29.05558295481126,
        "Longitude(deg)": -145.37848051685407,
        "Mean Anomaly(deg)": -37.181107132422326,
        "RAAN(deg)": 339.99014336852804,
        "Satellite Name": "Starlink Shell 1 1515",
        "Satellite Number": 1515,
        "Semi-Major Axis(m)": 6931778.249405717,
        "Time(s)": 190
    },
    {
        "Altitude(m)": 561947.0140962432,
        "Argument of Periapsis(deg)": 0.0069715695902247375,
        "Eccentricity": 0.0,
        "Inclination(deg)": 53.0,
        "Latitude(deg)": -28.598346503075437,
        "Longitude(deg)": -144.9306709494594,
        "Mean Anomaly(deg)": -36.55427592886568,
        "RAAN(deg)": 339.9896245984506,
        "Satellite Name": "Starlink Shell 1 1515",
        "Satellite Number": 1515,
        "Semi-Major Axis(m)": 6931778.249405717,
        "Time(s)": 200
    },
    {
        "Altitude(m)": 561772.7996053443,
        "Argument of Periapsis(deg)": 0.007320148069735974,
        "Eccentricity": 0.0,
        "Inclination(deg)": 53.0,
        "Latitude(deg)": -28.13931694037873,
        "Longitude(deg)": -144.48706670834375,
        "Mean Anomaly(deg)": -35.92744472530898,
        "RAAN(deg)": 339.9891058283731,
        "Satellite Name": "Starlink Shell 1 1515",
        "Satellite Number": 1515,
        "Semi-Major Axis(m)": 6931778.249405717,
        "Time(s)": 210
    },
    {
        "Altitude(m)": 561599.0147033787,
        "Argument of Periapsis(deg)": 0.007668726549247212,
        "Eccentricity": 0.0,
        "Inclination(deg)": 53.0,
        "Latitude(deg)": -27.67854187042076,
        "Longitude(deg)": -144.04756828248347,
        "Mean Anomaly(deg)": -35.30061352175223,
        "RAAN(deg)": 339.9885870582956,
        "Satellite Name": "Starlink Shell 1 1515",
        "Satellite Number": 1515,
        "Semi-Major Axis(m)": 6931778.249405717,
        "Time(s)": 220
    },
    {
        "Altitude(m)": 561425.7236731072,
        "Argument of Periapsis(deg)": 0.00801730502875845,
        "Eccentricity": 0.0,
        "Inclination(deg)": 53.0,
        "Latitude(deg)": -27.216067871710273,
        "Longitude(deg)": -143.61207746102906,
        "Mean Anomaly(deg)": -34.673782318195485,
        "RAAN(deg)": 339.98806828821813,
        "Satellite Name": "Starlink Shell 1 1515",
        "Satellite Number": 1515,
        "Semi-Major Axis(m)": 6931778.249405717,
        "Time(s)": 230
    },
    {
        "Altitude(m)": 561252.9904298653,
        "Argument of Periapsis(deg)": 0.008365883508269684,
        "Eccentricity": 0.0,
        "Inclination(deg)": 53.0,
        "Latitude(deg)": -26.751940526957856,
        "Longitude(deg)": -143.18049682818722,
        "Mean Anomaly(deg)": -34.046951114638844,
        "RAAN(deg)": 339.9875495181407,
        "Satellite Name": "Starlink Shell 1 1515",
        "Satellite Number": 1515,
        "Semi-Major Axis(m)": 6931778.249405717,
        "Time(s)": 240
    },
    {
        "Altitude(m)": 561080.8784929252,
        "Argument of Periapsis(deg)": 0.008714461987780921,
        "Eccentricity": 0.0,
        "Inclination(deg)": 53.0,
        "Latitude(deg)": -26.286204451997722,
        "Longitude(deg)": -142.7527307682957,
        "Mean Anomaly(deg)": -33.42011991108205,
        "RAAN(deg)": 339.9870307480632,
        "Satellite Name": "Starlink Shell 1 1515",
        "Satellite Number": 1515,
        "Semi-Major Axis(m)": 6931778.249405717,
        "Time(s)": 250
    },
    {
        "Altitude(m)": 560909.4509569837,
        "Argument of Periapsis(deg)": 0.009063040467292158,
        "Eccentricity": 0.0,
        "Inclination(deg)": 53.0,
        "Latitude(deg)": -25.81890332422895,
        "Longitude(deg)": -142.32868495556582,
        "Mean Anomaly(deg)": -32.7932887075253,
        "RAAN(deg)": 339.98651197798574,
        "Satellite Name": "Starlink Shell 1 1515",
        "Satellite Number": 1515,
        "Semi-Major Axis(m)": 6931778.249405717,
        "Time(s)": 260
    },
    {
        "Altitude(m)": 560738.7704638569,
        "Argument of Periapsis(deg)": 0.009411618946803396,
        "Eccentricity": 0.0,
        "Inclination(deg)": 53.0,
        "Latitude(deg)": -25.3500799105605,
        "Longitude(deg)": -141.9082658415723,
        "Mean Anomaly(deg)": -32.16645750396865,
        "RAAN(deg)": 339.9859932079082,
        "Satellite Name": "Starlink Shell 1 1515",
        "Satellite Number": 1515,
        "Semi-Major Axis(m)": 6931778.249405717,
        "Time(s)": 270
    },
    {
        "Altitude(m)": 560568.8991744112,
        "Argument of Periapsis(deg)": 0.009760197426314633,
        "Eccentricity": 0.0,
        "Inclination(deg)": 53.0,
        "Latitude(deg)": -24.879776094849753,
        "Longitude(deg)": -141.49138165355654,
        "Mean Anomaly(deg)": -31.53962630041196,
        "RAAN(deg)": 339.98547443783076,
        "Satellite Name": "Starlink Shell 1 1515",
        "Satellite Number": 1515,
        "Semi-Major Axis(m)": 6931778.249405717,
        "Time(s)": 280
    },
    {
        "Altitude(m)": 560399.898740663,
        "Argument of Periapsis(deg)": 0.01010877590582587,
        "Eccentricity": 0.0,
        "Inclination(deg)": 53.0,
        "Latitude(deg)": -24.408032904832012,
        "Longitude(deg)": -141.07794187797825,
        "Mean Anomaly(deg)": -30.912795096855163,
        "RAAN(deg)": 339.98495566775335,
        "Satellite Name": "Starlink Shell 1 1515",
        "Satellite Number": 1515,
        "Semi-Major Axis(m)": 6931778.249405717,
        "Time(s)": 290
    },
    {
        "Altitude(m)": 560231.8302781705,
        "Argument of Periapsis(deg)": 0.010457354385337106,
        "Eccentricity": 0.0,
        "Inclination(deg)": 53.0,
        "Latitude(deg)": -23.93489053853464,
        "Longitude(deg)": -140.66785674235584,
        "Mean Anomaly(deg)": -30.285963893298465,
        "RAAN(deg)": 339.98443689767583,
        "Satellite Name": "Starlink Shell 1 1515",
        "Satellite Number": 1515,
        "Semi-Major Axis(m)": 6931778.249405717,
        "Time(s)": 300
    },
    {
        "Altitude(m)": 560064.7543386172,
        "Argument of Periapsis(deg)": 0.010805932864848343,
        "Eccentricity": 0.0,
        "Inclination(deg)": 53.0,
        "Latitude(deg)": -23.46038839016905,
        "Longitude(deg)": -140.2610382084253,
        "Mean Anomaly(deg)": -29.65913268974177,
        "RAAN(deg)": 339.9839181275984,
        "Satellite Name": "Starlink Shell 1 1515",
        "Satellite Number": 1515,
        "Semi-Major Axis(m)": 6931778.249405717,
        "Time(s)": 310
    },
    {
        "Altitude(m)": 559898.7308827108,
        "Argument of Periapsis(deg)": 0.01115451134435958,
        "Eccentricity": 0.0,
        "Inclination(deg)": 53.0,
        "Latitude(deg)": -22.9845650755071,
        "Longitude(deg)": -139.85739945101878,
        "Mean Anomaly(deg)": -29.032301486185073,
        "RAAN(deg)": 339.9833993575209,
        "Satellite Name": "Starlink Shell 1 1515",
        "Satellite Number": 1515,
        "Semi-Major Axis(m)": 6931778.249405717,
        "Time(s)": 320
    },
    {
        "Altitude(m)": 559733.8192533251,
        "Argument of Periapsis(deg)": 0.011503089823870818,
        "Eccentricity": 0.0,
        "Inclination(deg)": 53.0,
        "Latitude(deg)": -22.507458456738558,
        "Longitude(deg)": -139.45685433566902,
        "Mean Anomaly(deg)": -28.405470282628276,
        "RAAN(deg)": 339.98288058744345,
        "Satellite Name": "Starlink Shell 1 1515",
        "Satellite Number": 1515,
        "Semi-Major Axis(m)": 6931778.249405717,
        "Time(s)": 330
    },
    {
        "Altitude(m)": 559570.0781489308,
        "Argument of Periapsis(deg)": 0.011851668303382053,
        "Eccentricity": 0.0,
        "Inclination(deg)": 53.0,
        "Latitude(deg)": -22.029105666810437,
        "Longitude(deg)": -139.05931840794085,
        "Mean Anomaly(deg)": -27.77863907907163,
        "RAAN(deg)": 339.9823618173659,
        "Satellite Name": "Starlink Shell 1 1515",
        "Satellite Number": 1515,
        "Semi-Major Axis(m)": 6931778.249405717,
        "Time(s)": 340
    },
    {
        "Altitude(m)": 559407.5655973614,
        "Argument of Periapsis(deg)": 0.012200246782893292,
        "Eccentricity": 0.0,
        "Inclination(deg)": 53.0,
        "Latitude(deg)": -21.54954313325586,
        "Longitude(deg)": -138.66470836885736,
        "Mean Anomaly(deg)": -27.15180787551499,
        "RAAN(deg)": 339.98184304728846,
        "Satellite Name": "Starlink Shell 1 1515",
        "Satellite Number": 1515,
        "Semi-Major Axis(m)": 6931778.249405717,
        "Time(s)": 350
    },
    {
        "Altitude(m)": 559246.3389298564,
        "Argument of Periapsis(deg)": 0.012548825262404526,
        "Eccentricity": 0.0,
        "Inclination(deg)": 53.0,
        "Latitude(deg)": -21.068806601515842,
        "Longitude(deg)": -138.27294154940395,
        "Mean Anomaly(deg)": -26.524976671958193,
        "RAAN(deg)": 339.981324277211,
        "Satellite Name": "Starlink Shell 1 1515",
        "Satellite Number": 1515,
        "Semi-Major Axis(m)": 6931778.249405717,
        "Time(s)": 360
    },
    {
        "Altitude(m)": 559086.4547554547,
        "Argument of Periapsis(deg)": 0.012897403741915765,
        "Eccentricity": 0.0,
        "Inclination(deg)": 53.0,
        "Latitude(deg)": -20.586931157757522,
        "Longitude(deg)": -137.88393689708207,
        "Mean Anomaly(deg)": -25.898145468401445,
        "RAAN(deg)": 339.98080550713354,
        "Satellite Name": "Starlink Shell 1 1515",
        "Satellite Number": 1515,
        "Semi-Major Axis(m)": 6931778.249405717,
        "Time(s)": 370
    }
]